ESEO                    
1 43792U 18099AL  26068.65529582  .00002831  00000+0  20935-3 0  9991
2 43792  97.4113 110.2601 0011063 317.6000  42.4371 15.03914518396849
STARLINK-35271          
1 65812U 25218X   26068.62261215  .00003752  00000+0  26409-3 0  9997
2 65812  97.6024 292.9511 0002154  90.9310 269.2163 15.05655457 24968
